CCSDS_OMM_VERS = 2.0
CREATION_DATE  = 
ORIGINATOR     = 

OBJECT_NAME    = COSMOS 1933
OBJECT_ID      = 1988-020A
CENTER_NAME    = EARTH
REF_FRAME      = TEME
TIME_SYSTEM    = UTC
MEAN_ELEMENT_THEORY = SGP/SGP4

EPOCH          = 2026-02-26T12:25:16.332096
MEAN_MOTION    = 15.17865947
ECCENTRICITY   = .00028951
INCLINATION    = 82.5100
RA_OF_ASC_NODE = 261.9675
ARG_OF_PERICENTER = 225.7635
MEAN_ANOMALY   = 134.3361

EPHEMERIS_TYPE = 0
CLASSIFICATION_TYPE = U
NORAD_CAT_ID   = 18958
ELEMENT_SET_NO = 999
REV_AT_EPOCH   = 4853
BSTAR          = .20034929E-3
MEAN_MOTION_DOT = .4086E-4
MEAN_MOTION_DDOT = 0

CCSDS_OMM_VERS = 2.0
CREATION_DATE  = 
ORIGINATOR     = 

OBJECT_NAME    = SL-3 R/B
OBJECT_ID      = 1988-032B
CENTER_NAME    = EARTH
REF_FRAME      = TEME
TIME_SYSTEM    = UTC
MEAN_ELEMENT_THEORY = SGP/SGP4

EPOCH          = 2026-02-26T12:57:32.020416
MEAN_MOTION    = 15.19752788
ECCENTRICITY   = .00240767
INCLINATION    = 97.5173
RA_OF_ASC_NODE = 40.8333
ARG_OF_PERICENTER = 273.4578
MEAN_ANOMALY   = 86.3903

EPHEMERIS_TYPE = 0
CLASSIFICATION_TYPE = U
NORAD_CAT_ID   = 19046
ELEMENT_SET_NO = 999
REV_AT_EPOCH   = 5041
BSTAR          = .27505046E-3
MEAN_MOTION_DOT = .5856E-4
MEAN_MOTION_DDOT = 0

CCSDS_OMM_VERS = 2.0
CREATION_DATE  = 
ORIGINATOR     = 

OBJECT_NAME    = SL-16 R/B
OBJECT_ID      = 1988-039B
CENTER_NAME    = EARTH
REF_FRAME      = TEME
TIME_SYSTEM    = UTC
MEAN_ELEMENT_THEORY = SGP/SGP4

EPOCH          = 2026-02-26T13:34:06.537216
MEAN_MOTION    = 14.19614044
ECCENTRICITY   = .0022093
INCLINATION    = 71.0130
RA_OF_ASC_NODE = 92.0725
ARG_OF_PERICENTER = 350.8999
MEAN_ANOMALY   = 9.1722

EPHEMERIS_TYPE = 0
CLASSIFICATION_TYPE = U
NORAD_CAT_ID   = 19120
ELEMENT_SET_NO = 999
REV_AT_EPOCH   = 95680
BSTAR          = .77145096E-4
MEAN_MOTION_DOT = .115E-5
MEAN_MOTION_DDOT = 0

CCSDS_OMM_VERS = 2.0
CREATION_DATE  = 
ORIGINATOR     = 

OBJECT_NAME    = COSMOS 1953
OBJECT_ID      = 1988-050A
CENTER_NAME    = EARTH
REF_FRAME      = TEME
TIME_SYSTEM    = UTC
MEAN_ELEMENT_THEORY = SGP/SGP4

EPOCH          = 2026-02-26T08:45:19.333440
MEAN_MOTION    = 15.28284603
ECCENTRICITY   = .00119638
INCLINATION    = 82.5104
RA_OF_ASC_NODE = 169.6315
ARG_OF_PERICENTER = 159.6203
MEAN_ANOMALY   = 200.5516

EPHEMERIS_TYPE = 0
CLASSIFICATION_TYPE = U
NORAD_CAT_ID   = 19210
ELEMENT_SET_NO = 999
REV_AT_EPOCH   = 3605
BSTAR          = .31931174E-3
MEAN_MOTION_DOT = .8847E-4
MEAN_MOTION_DDOT = 0

CCSDS_OMM_VERS = 2.0
CREATION_DATE  = 
ORIGINATOR     = 

OBJECT_NAME    = SL-8 R/B
OBJECT_ID      = 1988-053B
CENTER_NAME    = EARTH
REF_FRAME      = TEME
TIME_SYSTEM    = UTC
MEAN_ELEMENT_THEORY = SGP/SGP4

EPOCH          = 2026-02-26T12:58:14.651904
MEAN_MOTION    = 14.38908080
ECCENTRICITY   = .00211102
INCLINATION    = 74.0477
RA_OF_ASC_NODE = 133.0170
ARG_OF_PERICENTER = 314.0085
MEAN_ANOMALY   = 148.2780

EPHEMERIS_TYPE = 0
CLASSIFICATION_TYPE = U
NORAD_CAT_ID   = 19257
ELEMENT_SET_NO = 999
REV_AT_EPOCH   = 97499
BSTAR          = .79368937E-4
MEAN_MOTION_DOT = .219E-5
MEAN_MOTION_DDOT = 0

CCSDS_OMM_VERS = 2.0
CREATION_DATE  = 
ORIGINATOR     = 

OBJECT_NAME    = COSMOS 1975
OBJECT_ID      = 1988-093A
CENTER_NAME    = EARTH
REF_FRAME      = TEME
TIME_SYSTEM    = UTC
MEAN_ELEMENT_THEORY = SGP/SGP4

EPOCH          = 2026-02-26T06:20:36.836736
MEAN_MOTION    = 15.27863640
ECCENTRICITY   = .00111528
INCLINATION    = 82.5207
RA_OF_ASC_NODE = 129.1516
ARG_OF_PERICENTER = 203.4738
MEAN_ANOMALY   = 156.5994

EPHEMERIS_TYPE = 0
CLASSIFICATION_TYPE = U
NORAD_CAT_ID   = 19573
ELEMENT_SET_NO = 999
REV_AT_EPOCH   = 1766
BSTAR          = .31849585E-3
MEAN_MOTION_DOT = .871E-4
MEAN_MOTION_DDOT = 0

CCSDS_OMM_VERS = 2.0
CREATION_DATE  = 
ORIGINATOR     = 

OBJECT_NAME    = SL-14 R/B
OBJECT_ID      = 1988-093B
CENTER_NAME    = EARTH
REF_FRAME      = TEME
TIME_SYSTEM    = UTC
MEAN_ELEMENT_THEORY = SGP/SGP4

EPOCH          = 2026-02-26T11:48:47.238624
MEAN_MOTION    = 14.85640429
ECCENTRICITY   = .00223064
INCLINATION    = 82.5284
RA_OF_ASC_NODE = 52.5569
ARG_OF_PERICENTER = 76.2954
MEAN_ANOMALY   = 40.7041

EPHEMERIS_TYPE = 0
CLASSIFICATION_TYPE = U
NORAD_CAT_ID   = 19574
ELEMENT_SET_NO = 999
REV_AT_EPOCH   = 99937
BSTAR          = .58662362E-4
MEAN_MOTION_DOT = .535E-5
MEAN_MOTION_DDOT = 0

CCSDS_OMM_VERS = 2.0
CREATION_DATE  = 
ORIGINATOR     = 

OBJECT_NAME    = SL-16 R/B
OBJECT_ID      = 1988-102B
CENTER_NAME    = EARTH
REF_FRAME      = TEME
TIME_SYSTEM    = UTC
MEAN_ELEMENT_THEORY = SGP/SGP4

EPOCH          = 2026-02-26T12:47:04.212960
MEAN_MOTION    = 14.16150324
ECCENTRICITY   = .00132783
INCLINATION    = 71.0004
RA_OF_ASC_NODE = 174.9704
ARG_OF_PERICENTER = 18.5866
MEAN_ANOMALY   = 341.5739

EPHEMERIS_TYPE = 0
CLASSIFICATION_TYPE = U
NORAD_CAT_ID   = 19650
ELEMENT_SET_NO = 999
REV_AT_EPOCH   = 92531
BSTAR          = -.10456274E-3
MEAN_MOTION_DOT = -.255E-5
MEAN_MOTION_DDOT = 0

CCSDS_OMM_VERS = 2.0
CREATION_DATE  = 
ORIGINATOR     = 

OBJECT_NAME    = INTERCOSMOS 24
OBJECT_ID      = 1989-080A
CENTER_NAME    = EARTH
REF_FRAME      = TEME
TIME_SYSTEM    = UTC
MEAN_ELEMENT_THEORY = SGP/SGP4

EPOCH          = 2026-02-26T12:34:08.092128
MEAN_MOTION    = 12.59538320
ECCENTRICITY   = .11870044
INCLINATION    = 82.6041
RA_OF_ASC_NODE = 111.6749
ARG_OF_PERICENTER = 318.7627
MEAN_ANOMALY   = 32.9418

EPHEMERIS_TYPE = 0
CLASSIFICATION_TYPE = U
NORAD_CAT_ID   = 20261
ELEMENT_SET_NO = 999
REV_AT_EPOCH   = 66539
BSTAR          = .17604429E-3
MEAN_MOTION_DOT = .596E-5
MEAN_MOTION_DDOT = 0

CCSDS_OMM_VERS = 2.0
CREATION_DATE  = 
ORIGINATOR     = 

OBJECT_NAME    = SL-14 R/B
OBJECT_ID      = 1989-080C
CENTER_NAME    = EARTH
REF_FRAME      = TEME
TIME_SYSTEM    = UTC
MEAN_ELEMENT_THEORY = SGP/SGP4

EPOCH          = 2026-02-26T14:14:04.922592
MEAN_MOTION    = 12.50476890
ECCENTRICITY   = .12301251
INCLINATION    = 82.5970
RA_OF_ASC_NODE = 180.3078
ARG_OF_PERICENTER = 210.1107
MEAN_ANOMALY   = 142.3430

EPHEMERIS_TYPE = 0
CLASSIFICATION_TYPE = U
NORAD_CAT_ID   = 20262
ELEMENT_SET_NO = 999
REV_AT_EPOCH   = 65876
BSTAR          = .18472239E-3
MEAN_MOTION_DOT = .62E-5
MEAN_MOTION_DDOT = 0

CCSDS_OMM_VERS = 2.0
CREATION_DATE  = 
ORIGINATOR     = 

OBJECT_NAME    = DELTA 1 R/B
OBJECT_ID      = 1989-089B
CENTER_NAME    = EARTH
REF_FRAME      = TEME
TIME_SYSTEM    = UTC
MEAN_ELEMENT_THEORY = SGP/SGP4

EPOCH          = 2026-02-26T12:22:30.508896
MEAN_MOTION    = 14.50652330
ECCENTRICITY   = .0069709
INCLINATION    = 97.0712
RA_OF_ASC_NODE = 266.7311
ARG_OF_PERICENTER = 156.8364
MEAN_ANOMALY   = 203.6003

EPHEMERIS_TYPE = 0
CLASSIFICATION_TYPE = U
NORAD_CAT_ID   = 20323
ELEMENT_SET_NO = 999
REV_AT_EPOCH   = 89411
BSTAR          = .92089146E-4
MEAN_MOTION_DOT = .338E-5
MEAN_MOTION_DDOT = 0

CCSDS_OMM_VERS = 2.0
CREATION_DATE  = 
ORIGINATOR     = 

OBJECT_NAME    = ARIANE 40 R/B
OBJECT_ID      = 1990-005H
CENTER_NAME    = EARTH
REF_FRAME      = TEME
TIME_SYSTEM    = UTC
MEAN_ELEMENT_THEORY = SGP/SGP4

EPOCH          = 2026-02-26T13:20:33.180576
MEAN_MOTION    = 14.39861918
ECCENTRICITY   = .00091928
INCLINATION    = 98.3109
RA_OF_ASC_NODE = 118.5479
ARG_OF_PERICENTER = 233.6451
MEAN_ANOMALY   = 126.3890

EPHEMERIS_TYPE = 0
CLASSIFICATION_TYPE = U
NORAD_CAT_ID   = 20443
ELEMENT_SET_NO = 999
REV_AT_EPOCH   = 89120
BSTAR          = .92174977E-4
MEAN_MOTION_DOT = .247E-5
MEAN_MOTION_DDOT = 0

